[{"OBJECT_NAME":"STARLINK-5853","OBJECT_ID":"2023-083F","EPOCH":"2026-03-09T01:41:13.170048","MEAN_MOTION":15.02533583,"ECCENTRICITY":0.00011351,"INCLINATION":43.0035,"RA_OF_ASC_NODE":85.4505,"ARG_OF_PERICENTER":261.2397,"MEAN_ANOMALY":98.8316,"EPHEMERIS_TYPE":0,"CLASSIFICATION_TYPE":"U","NORAD_CAT_ID":56881,"ELEMENT_SET_NO":999,"REV_AT_EPOCH":15157,"BSTAR":1.622191e-5,"MEAN_MOTION_DOT":1.6e-7,"MEAN_MOTION_DDOT":0},{"OBJECT_NAME":"CZ-2C R\/B","OBJECT_ID":"2021-055C","EPOCH":"2026-03-09T16:47:26.920896","MEAN_MOTION":14.88109627,"ECCENTRICITY":0.00672888,"INCLINATION":35.0695,"RA_OF_ASC_NODE":218.1603,"ARG_OF_PERICENTER":136.1858,"MEAN_ANOMALY":224.4211,"EPHEMERIS_TYPE":0,"CLASSIFICATION_TYPE":"U","NORAD_CAT_ID":48862,"ELEMENT_SET_NO":999,"REV_AT_EPOCH":25639,"BSTAR":0.00028201568,"MEAN_MOTION_DOT":2.727e-5,"MEAN_MOTION_DDOT":0}]
